{"type": "FeatureCollection", "features": [ {"type": "Feature", "properties": {"norad_id": 30435, "name": "FENGYUN 1C DEB", "group": "fengyun-1c-debris", "lat": -48.68577814073371, "lon": 153.56550502709317, "alt_km": 1101.4981540940662, "timestamp": "2025-12-24T05:51:19.884796+00:00", "meta": {"OBJECT_NAME": "FENGYUN 1C DEB", "OBJECT_ID": "1999-025AEW", "EPOCH": "2025-12-23T15:05:39.512256", "MEAN_MOTION": 13.79658294, "ECCENTRICITY": 0.02087038, "INCLINATION": 99.0177, "RA_OF_ASC_NODE": 343.3878, "ARG_OF_PERICENTER": 82.6974, "MEAN_ANOMALY": 332.2864, "EPHEMERIS_TYPE": 0, "CLASSIFICATION_TYPE": "U", "NORAD_CAT_ID": 30435, "ELEMENT_SET_NO": 999, "REV_AT_EPOCH": 94310, "BSTAR": 0.0014475056, "MEAN_MOTION_DOT": 1.72e-05, "MEAN_MOTION_DDOT": 0}, "tle": {"line1": "1 30435U 99025AEW 25357.62892954  .00001720  00000+0  14475-2 0  9999", "line2": "2 30435  99.0177 343.3878 0208703  82.6974 332.2864 13.79658294943101"}}, "geometry": {"type": "Point", "coordinates": [153.56550502709317, -48.68577814073371]}}, {"type": "Feature", "properties": {"norad_id": 30436, "name": "FENGYUN 1C DEB", "group": "fengyun-1c-debris", "lat": -63.37291103182819, "lon": 54.543434142809524, "alt_km": 881.9012223629516, "timestamp": "2025-12-24T05:51:19.884806+00:00", "meta": {"OBJECT_NAME": "FENGYUN 1C DEB", "OBJECT_ID": "1999-025AEX", "EPOCH": "2025-12-22T04:27:48.030048", "MEAN_MOTION": 14.2236687, "ECCENTRICITY": 0.00981397, "INCLINATION": 98.4268, "RA_OF_ASC_NODE": 249.7738, "ARG_OF_PERICENTER": 105.8488, "MEAN_ANOMALY": 45.9504, "EPHEMERIS_TYPE": 0, "CLASSIFICATION_TYPE": "U", "NORAD_CAT_ID": 30436, "ELEMENT_SET_NO": 999, "REV_AT_EPOCH": 96571, "BSTAR": 0.0020674814, "MEAN_MOTION_DOT": 4.794e-05, "MEAN_MOTION_DDOT": 0}, "tle": {"line1": "1 30436U 99025AEX 25356.18597257  .00004794  00000+0  20675-2 0  9991", "line2": "2 30436  98.4268 249.7738 0098139 105.8488  45.9504 14.22366870965713"}}, "geometry": {"type": "Point", "coordinates": [54.543434142809524, -63.37291103182819]}}, {"type": "Feature", "properties": {"norad_id": 30437, "name": "FENGYUN 1C DEB", "group": "fengyun-1c-debris", "lat": 3.1571773661956515, "lon": -160.06390567030144, "alt_km": 613.7242643456111, "timestamp": "2025-12-24T05:51:19.884821+00:00", "meta": {"OBJECT_NAME": "FENGYUN 1C DEB", "OBJECT_ID": "1999-025AEY", "EPOCH": "2025-12-23T18:02:43.390176", "MEAN_MOTION": 14.88462756, "ECCENTRICITY": 0.00354105, "INCLINATION": 98.9203, "RA_OF_ASC_NODE": 18.8863, "ARG_OF_PERICENTER": 68.0246, "MEAN_ANOMALY": 352.9893, "EPHEMERIS_TYPE": 0, "CLASSIFICATION_TYPE": "U", "NORAD_CAT_ID": 30437, "ELEMENT_SET_NO": 999, "REV_AT_EPOCH": 99351, "BSTAR": 0.0022670025, "MEAN_MOTION_DOT": 0.0002128, "MEAN_MOTION_DDOT": 0}, "tle": {"line1": "1 30437U 99025AEY 25357.75189109  .00021280  00000+0  22670-2 0  9995", "line2": "2 30437  98.9203  18.8863 0035410  68.0246 352.9893 14.88462756993510"}}, "geometry": {"type": "Point", "coordinates": [-160.06390567030144, 3.1571773661956515]}}, {"type": "Feature", "properties": {"norad_id": 30438, "name": "FENGYUN 1C DEB", "group": "fengyun-1c-debris", "lat": -28.33782625747548, "lon": 19.39626845769465, "alt_km": 1025.1463654336703, "timestamp": "2025-12-24T05:51:19.884831+00:00", "meta": {"OBJECT_NAME": "FENGYUN 1C DEB", "OBJECT_ID": "1999-025AEZ", "EPOCH": "2025-12-22T00:31:24.750336", "MEAN_MOTION": 13.92130582, "ECCENTRICITY": 0.01348933, "INCLINATION": 98.7502, "RA_OF_ASC_NODE": 12.5335, "ARG_OF_PERICENTER": 161.3823, "MEAN_ANOMALY": 199.2342, "EPHEMERIS_TYPE": 0, "CLASSIFICATION_TYPE": "U", "NORAD_CAT_ID": 30438, "ELEMENT_SET_NO": 999, "REV_AT_EPOCH": 95435, "BSTAR": 0.0010275015, "MEAN_MOTION_DOT": 1.376e-05, "MEAN_MOTION_DDOT": 0}, "tle": {"line1": "1 30438U 99025AEZ 25356.02181424  .00001376  00000+0  10275-2 0  9999", "line2": "2 30438  98.7502  12.5335 0134893 161.3823 199.2342 13.92130582954352"}}, "geometry": {"type": "Point", "coordinates": [19.39626845769465, -28.33782625747548]}}, {"type": "Feature", "properties": {"norad_id": 30439, "name": "FENGYUN 1C DEB", "group": "fengyun-1c-debris", "lat": -50.33489646228365, "lon": 178.9173194361126, "alt_km": 861.783050471533, "timestamp": "2025-12-24T05:51:19.884841+00:00", "meta": {"OBJECT_NAME": "FENGYUN 1C DEB", "OBJECT_ID": "1999-025AFA", "EPOCH": "2025-12-23T23:54:04.805280", "MEAN_MOTION": 14.08858683, "ECCENTRICITY": 0.00383419, "INCLINATION": 98.7496, "RA_OF_ASC_NODE": 9.3802, "ARG_OF_PERICENTER": 304.4766, "MEAN_ANOMALY": 109.429, "EPHEMERIS_TYPE": 0, "CLASSIFICATION_TYPE": "U", "NORAD_CAT_ID": 30439, "ELEMENT_SET_NO": 999, "REV_AT_EPOCH": 96950, "BSTAR": 0.00044609707, "MEAN_MOTION_DOT": 7.33e-06, "MEAN_MOTION_DDOT": 0}, "tle": {"line1": "1 30439U 99025AFA 25357.99588895  .00000733  00000+0  44610-3 0  9997", "line2": "2 30439  98.7496   9.3802 0038341 304.4766 109.4290 14.08858683969500"}}, "geometry": {"type": "Point", "coordinates": [178.9173194361126, -50.33489646228365]}}, {"type": "Feature", "properties": {"norad_id": 30441, "name": "FENGYUN 1C DEB", "group": "fengyun-1c-debris", "lat": 31.60405160696562, "lon": 81.49378561191232, "alt_km": 1100.8839426491922, "timestamp": "2025-12-24T05:51:19.884851+00:00", "meta": {"OBJECT_NAME": "FENGYUN 1C DEB", "OBJECT_ID": "1999-025AFC", "EPOCH": "2025-12-23T05:17:36.871296", "MEAN_MOTION": 13.77691815, "ECCENTRICITY": 0.01842984, "INCLINATION": 99.134, "RA_OF_ASC_NODE": 86.1903, "ARG_OF_PERICENTER": 229.8576, "MEAN_ANOMALY": 128.6307, "EPHEMERIS_TYPE": 0, "CLASSIFICATION_TYPE": "U", "NORAD_CAT_ID": 30441, "ELEMENT_SET_NO": 999, "REV_AT_EPOCH": 95014, "BSTAR": 0.00055584371, "MEAN_MOTION_DOT": 5.86e-06, "MEAN_MOTION_DDOT": 0}, "tle": {"line1": "1 30441U 99025AFC 25357.22056564  .00000586  00000+0  55584-3 0  9997", "line2": "2 30441  99.1340  86.1903 0184298 229.8576 128.6307 13.77691815950142"}}, "geometry": {"type": "Point", "coordinates": [81.49378561191232, 31.60405160696562]}}, {"type": "Feature", "properties": {"norad_id": 30442, "name": "FENGYUN 1C DEB", "group": "fengyun-1c-debris", "lat": 28.74645594370871, "lon": 87.11427472521822, "alt_km": 822.9222905261149, "timestamp": "2025-12-24T05:51:19.884861+00:00", "meta": {"OBJECT_NAME": "FENGYUN 1C DEB", "OBJECT_ID": "1999-025AFD", "EPOCH": "2025-12-22T04:58:33.552192", "MEAN_MOTION": 14.28699815, "ECCENTRICITY": 0.00557419, "INCLINATION": 98.8668, "RA_OF_ASC_NODE": 89.957, "ARG_OF_PERICENTER": 259.8714, "MEAN_ANOMALY": 99.6176, "EPHEMERIS_TYPE": 0, "CLASSIFICATION_TYPE": "U", "NORAD_CAT_ID": 30442, "ELEMENT_SET_NO": 999, "REV_AT_EPOCH": 97297, "BSTAR": 0.0021302255, "MEAN_MOTION_DOT": 5.405e-05, "MEAN_MOTION_DDOT": 0}, "tle": {"line1": "1 30442U 99025AFD 25356.20733278  .00005405  00000+0  21302-2 0  9994", "line2": "2 30442  98.8668  89.9570 0055741 259.8714  99.6176 14.28699815972971"}}, "geometry": {"type": "Point", "coordinates": [87.11427472521822, 28.74645594370871]}}, {"type": "Feature", "properties": {"norad_id": 30443, "name": "FENGYUN 1C DEB", "group": "fengyun-1c-debris", "lat": 6.74910874448242, "lon": 126.73551133882393, "alt_km": 783.7341158358149, "timestamp": "2025-12-24T05:51:19.884871+00:00", "meta": {"OBJECT_NAME": "FENGYUN 1C DEB", "OBJECT_ID": "1999-025AFE", "EPOCH": "2025-12-22T19:37:37.195104", "MEAN_MOTION": 14.36920231, "ECCENTRICITY": 0.00268693, "INCLINATION": 98.8497, "RA_OF_ASC_NODE": 304.2133, "ARG_OF_PERICENTER": 310.3658, "MEAN_ANOMALY": 49.5182, "EPHEMERIS_TYPE": 0, "CLASSIFICATION_TYPE": "U", "NORAD_CAT_ID": 30443, "ELEMENT_SET_NO": 999, "REV_AT_EPOCH": 97578, "BSTAR": 0.0023332779, "MEAN_MOTION_DOT": 6.894e-05, "MEAN_MOTION_DDOT": 0}, "tle": {"line1": "1 30443U 99025AFE 25356.81779161  .00006894  00000+0  23333-2 0  9992", "line2": "2 30443  98.8497 304.2133 0026869 310.3658  49.5182 14.36920231975780"}}, "geometry": {"type": "Point", "coordinates": [126.73551133882393, 6.74910874448242]}}, {"type": "Feature", "properties": {"norad_id": 30445, "name": "FENGYUN 1C DEB", "group": "fengyun-1c-debris", "lat": -71.17646956570175, "lon": -22.71467139711311, "alt_km": 695.6232864044587, "timestamp": "2025-12-24T05:51:19.884881+00:00", "meta": {"OBJECT_NAME": "FENGYUN 1C DEB", "OBJECT_ID": "1999-025AFG", "EPOCH": "2025-12-23T10:17:51.424224", "MEAN_MOTION": 14.48805549, "ECCENTRICITY": 0.01052864, "INCLINATION": 98.8372, "RA_OF_ASC_NODE": 309.2786, "ARG_OF_PERICENTER": 346.3006, "MEAN_ANOMALY": 13.5334, "EPHEMERIS_TYPE": 0, "CLASSIFICATION_TYPE": "U", "NORAD_CAT_ID": 30445, "ELEMENT_SET_NO": 999, "REV_AT_EPOCH": 99339, "BSTAR": 0.00077750359, "MEAN_MOTION_DOT": 3.097e-05, "MEAN_MOTION_DDOT": 0}, "tle": {"line1": "1 30445U 99025AFG 25357.42906741  .00003097  00000+0  77750-3 0  9993", "line2": "2 30445  98.8372 309.2786 0105286 346.3006  13.5334 14.48805549993394"}}, "geometry": {"type": "Point", "coordinates": [-22.71467139711311, -71.17646956570175]}}, {"type": "Feature", "properties": {"norad_id": 30446, "name": "FENGYUN 1C DEB", "group": "fengyun-1c-debris", "lat": -78.15802901583322, "lon": -145.39050151695983, "alt_km": 772.9367075710834, "timestamp": "2025-12-24T05:51:19.884892+00:00", "meta": {"OBJECT_NAME": "FENGYUN 1C DEB", "OBJECT_ID": "1999-025AFH", "EPOCH": "2025-12-23T12:01:40.522080", "MEAN_MOTION": 14.44837289, "ECCENTRICITY": 0.00340779, "INCLINATION": 98.6132, "RA_OF_ASC_NODE": 80.1495, "ARG_OF_PERICENTER": 66.153, "MEAN_ANOMALY": 294.3226, "EPHEMERIS_TYPE": 0, "CLASSIFICATION_TYPE": "U", "NORAD_CAT_ID": 30446, "ELEMENT_SET_NO": 999, "REV_AT_EPOCH": 98332, "BSTAR": 0.0016315448, "MEAN_MOTION_DOT": 5.672e-05, "MEAN_MOTION_DDOT": 0}, "tle": {"line1": "1 30446U 99025AFH 25357.50116345  .00005672  00000+0  16315-2 0  9996", "line2": "2 30446  98.6132  80.1495 0034077  66.1530 294.3226 14.44837289983320"}}, "geometry": {"type": "Point", "coordinates": [-145.39050151695983, -78.15802901583322]}}]}